city_id,name_fa,name_en,province_id,latitude,longitude
1,تهران,Tehran,8,35.6892523,51.3896004
2,اصفهان,Isfahan,4,32.6707877,51.6650002
3,قزوین,Qazvin,18,36.2804074,50.006663
4,جندق,Jandaq,4,34.0422837,54.4150165
5,رینه,Rineh,27,35.8819792,52.1697254
6,همدان,Hamadan,30,34.7992888,48.5152464
7,نظرآباد,Nazarabad,5,35.9558897,50.6097443
8,آبیک,Abyek,18,36.0416927,50.5320519
9,محمدیه,Mohammadiyeh,18,36.2255821,50.1878041
10,اردبیل,Ardabil,3,38.2515581,48.2972269
11,لوشان,Lowshan,25,36.6279334,49.5162305
12,رستم آباد,Rostam Abad,25,36.897394,49.4915717
13,خسروشاه,Khosrowshah,1,37.9513096,46.0509259
14,صوفیان,Sufian,1,38.27694,45.981373
15,شوش,Shush,13,32.2003687,48.2489839
16,دورود,Dorud,26,33.4992998,49.0529575
17,کرمانشاه,Kermanshah,22,34.3239414,47.0735891
18,مراغه,Maragheh,1,37.3913128,46.2435751
19,بناب,Bonab,1,37.3409239,46.050471
20,آذرشهر,Azarshahr,1,37.7576638,45.9781014
21,کرمان,Kerman,21,30.2924085,57.0645647
22,بوشهر,Bushehr,7,28.9310786,50.8458443
23,خوی,Khoy,2,38.5504343,44.95354
24,مسجد سلیمان,Masjed Soleyman,13,31.9461316,49.3013154
25,زنجان,Zanjan,14,36.6700041,48.4795399
26,قره ضیاءالدین,Qaraziadin,2,38.8900366,45.0282295
27,سلماس,Salmas,2,38.1969035,44.7685015
28,هادیشهر,Hadishahr,1,38.8416756,45.6648065
29,بستان آباد,Bostanabad,1,37.8429496,46.8339774
30,تیکان تپه,Takab,2,36.4007658,47.1117125
31,رویان,Royan,27,36.5696172,51.9622645
32,پارس آباد,Parsabad,3,39.6461735,47.918551
33,قروه,Qorveh,20,35.1679005,47.800886
34,اشنویه,Oshnaviyeh,2,37.0418235,45.0983499
35,بازرگان,Bazargan,2,39.3886668,44.3876859
36,زرقان,Zarqan,17,29.774274,52.7215709
37,قطرویه,Qatruyeh,17,29.1461299,54.7027042
38,ماهان,Mahan,21,30.0536359,57.2883027
39,آباده,Abadeh,17,31.1627056,52.6490454
40,فرخی,Farokhi,4,33.844903,54.9470758
41,طالقان,Taleqan,5,36.177868,50.7655155
42,امیدیه,Omidieh,13,30.7568821,49.7017752
43,هرمز,Hormuz,29,27.0955031,56.452739
44,کنارک,Konarak,16,25.3604865,60.3981155
45,مهدی شهر,Mahdishahr,15,35.7108029,53.3555769
46,شهمیرزاد,Shahmirzad,15,35.7735069,53.3279767
47,درجزین,Darjazin,15,35.6539439,53.3379876
48,بندر ترکمن,Bandar-e Torkaman,24,36.8929175,54.0697204
49,گمیش‌تپه,Gumish Tappeh,24,37.0701316,54.0770395
50,مینودشت,Minudasht,24,37.2288889,55.3747222
51,آزادشهر,Azadshahr,24,37.0875125,55.1725639
52,میرجاوه,Mirjaveh,16,29.0149246,61.4540744
53,بسطام,Bastam,15,36.4828385,55.0010241
54,میامی,Mayamey,15,36.4086479,55.6545685
55,آلاشت,Alasht,27,36.066319,52.8366338
56,بادرود,Badrud,4,33.6916541,52.0076895
57,گرمسار,Garmsar,15,35.2221321,52.3385276
58,دیهوک,Deyhuk,10,33.2914689,57.5174149
59,کاریز,Kariz,11,34.8127778,60.8241667
60,نکا,Neka,27,36.6511824,53.2965182
61,عسلویه,Asalouyeh,7,27.4760027,52.6070411
62,عبدل آباد,Abdolabad,11,35.0668873,58.7966931
63,کبودرآهنگ,Kabudar Ahang,30,35.2083683,48.7242053
64,راسک,Rasak,16,26.2368044,61.3987716
65,اسلام آباد غرب,Eslamabad-e Gharb,22,34.1132923,46.5257463
66,اسدآباد,Asadabad,30,34.7825885,48.1217832
67,طالخونچه,Talkhuncheh,4,32.2661882,51.5639295
68,ازنا,Azna,26,33.4568272,49.4537204
69,بوئین زهرا,Boinzahra,18,35.7679957,50.0579667
70,توس,Toos,11,36.4833014,59.5169387
71,نودشه,Nowdeshah,22,35.1808,46.2544
72,پاوه,Paveh,22,35.0458307,46.3622191
73,ابرکوه,Abarkuh,31,31.1324814,53.2803103
74,صفاشهر,Safashahr,17,30.6114269,53.1912987
75,قادرآباد,Qaderabad,17,30.2742465,53.2686602
76,دامغان,Damghan,15,36.167451,54.3379993
77,مزرج,Mazerj,11,37.1511237,58.5506676
78,گناباد,Gonabad,11,34.3528343,58.6832352
79,کرد کوی,Kord Kuy,24,36.792383,54.1127036
80,علی آباد کتول,Aliabad-e Katul,24,36.9083415,54.8675871
81,سرعین,Sareyn,3,38.1493746,48.0746208
82,گلبهار,Golbahar,11,36.5725497,59.1966264
83,سردشت,Sardasht,2,36.1553184,45.4799637
84,کلیبر,Kaleybar,1,38.8629817,47.0399693
85,رضوانشهر,Rezvanshahr,4,32.7031948,51.104972
86,تاکستان,Takestan,18,36.0726006,49.6937027
87,رباط سنگ,Robat Sang,11,35.5460635,59.1938079
88,خضری دشت بیاض,Khezri Dasht Beyaz,10,34.0216542,58.8140837
89,بیدخت,Bidokht,11,34.3463245,58.7573243
90,نشتیفان,Nashtifan,11,34.4337222,60.1777943
91,نهبندان,Nehbandan,10,31.5431543,60.0349456
92,سربیشه,Sarbisheh,10,32.5755743,59.7970516
93,اسفدن,Esfeden,10,33.6446129,59.7784177
94,جاجرم,Jajrom,12,36.9499996,56.3792939
95,گرمه,Garmeh,12,36.9870347,56.2888872
96,دالکی,Dalaki,7,29.4307486,51.2925138
97,بندر گناوه,Bandar Ganaveh,7,29.5818086,50.5183165
98,بندر دیلم,Bandar Deylam,7,30.0529363,50.162503
99,بندرگز,Bandar-e Gaz,24,36.7719958,53.9481369
100,لالجین,Lalejin,30,34.9746055,48.4750848
101,رامیان,Ramian,24,37.0150484,55.1424163
102,گلوگاه,Galugah,27,36.7283914,53.8088538
103,رحیم آباد,Rahimabad,25,37.0314749,50.326393
104,ایزدشهر,Izadshahr,27,36.5987867,52.135172
105,فریدونکنار,Fereydunkenar,27,36.6830883,52.5217808
106,کلاچای,Kala Chay,25,37.0769158,50.3971953
107,خرم آباد,Khorramabad,27,36.781374,50.8727556
108,امیرکلا,Amirkola,27,36.6001749,52.6625614
109,تنکابن,Tonekabon,27,36.8154324,50.8787003
110,سرخرود,Sorkhrud,27,36.6712757,52.4492344
111,رودبنه,Rudboneh,25,37.2548508,50.0039032
112,واجارگاه,Vajargah,25,37.03829,50.4058965
113,چابکسر,Chaboksar,25,36.9743391,50.57079
114,مرزداران,Mazdavand,11,36.1557394,60.5291811
115,سید آباد,SeyedAbad,11,36.7472731,58.9570591
116,رامهرمز,Ramhormoz,13,31.2780254,49.6020152
117,آغاجاری,Aghajari,13,30.6995647,49.8285336
118,هشتگرد,Hashtgerd,5,35.9641824,50.6858036
119,سیراف,Bandar Siraf,7,27.664912,52.3480157
120,جم,Jam,7,27.8262811,52.3263597
121,تازه شهر,Tazeh Shahr,2,38.1751182,44.6915009
122,بایگ,Bayg,11,35.3756395,59.0389376
123,صغاد,Soqad,17,31.1915603,52.5155699
124,دوگنبدان,Dogonbadan,23,30.35695,50.7939174
125,الوند,Alvand,18,36.1865866,50.064134
126,اشتهارد,Eshtehard,5,35.7234469,50.3670608
127,مینوشهر,Minooshahr,13,30.3534226,48.2170496
128,زاغه,Zagheh,26,33.4999202,48.7059909
129,شهر امام,Shahr-e-Emam,13,32.2280083,48.4246878
130,الیگودرز,Aligudarz,26,33.4035124,49.6921874
131,گیلان غرب,Gilan-e Gharb,22,34.1411088,45.9140759
132,کرند غرب,Kerend-e Gharb,22,34.2827909,46.2436869
133,بندر شرفخانه,Sharafkhaneh,1,38.1786897,45.4892529
134,قصر شیرین,Qasr-e Shirin,22,34.515594,45.5800155
135,هفتکل,Haftkel,13,31.4462703,49.5288552
136,خامنه,Khamaneh,1,38.1934507,45.6298023
137,بناب جدید,Bonab-e-Jadid,1,38.428347,45.9086682
138,صحنه,Sahneh,22,34.4812132,47.6935934
139,الشتر,Aleshtar,26,33.8627885,48.2619601
140,بیستون,Bisotun,22,34.3995692,47.4448343
141,رباط,Robat,22,34.2686793,46.8039666
142,سومار,Sumar,22,33.8862053,45.6388242
143,کوهدشت,Kuhdasht,26,33.533792,47.6078615
144,شبستر,Shabestar,1,38.1783704,45.7002363
145,خورموج,Khormoj,7,28.6543108,51.3758834
146,کاکی,Kaki,7,28.3366456,51.523857
147,بندر دیر,Bandar Dayyer,7,27.8412393,51.9372144
148,بیدستان,Bidestan,18,36.2299677,50.1234128
149,صالح آباد,Salehabad,30,34.9215829,48.3431377
150,سرکان,Serkan,30,34.6022187,48.4508805
151,تویسرکان,Tuyserkan,30,34.5478858,48.4478184
152,رزن,Razan,30,35.3884459,49.0344948
153,ابهر,Abhar,14,36.1453765,49.2130055
154,گرماب,Garmab,14,35.8479451,48.1962354
155,هیدج,Hidaj,14,36.2520936,49.1302561
156,آوج,Avaj,18,35.5787119,49.2235559
157,دندی,Dandi,14,36.5541697,47.6207573
158,فیروزان,Firoozan,30,34.360476,48.1138221
159,صایین قلعه,Saeen Qaleh,14,36.3038013,49.072849
160,زرین رود,Zarrin Rud,14,35.7565444,48.4811949
161,خرمدره,Khorramdarreh,14,36.20354,49.1881871
162,زنگنه,Zangeneh,30,34.1552764,49.01032
163,سرباز,Sarbaz,16,26.6321167,61.2570288
164,گلزار,Golzar,21,29.7111348,57.0372966
165,نجف شهر,Najafshahr,21,29.3897031,55.7203011
166,نیک‌شهر,Nik Shahr,16,26.2259692,60.2161966
167,محمدآباد,Mohammadabad,16,30.8860774,61.4636468
168,زیدآباد,Zeidabad,21,29.6004426,55.5367771
169,بنجار,Bonjar,16,31.0428989,61.5682749
170,دوست‌محمد,Dust Mohammad,16,31.1427915,61.7909563
171,ادیمی,Adimi,16,31.1159553,61.4082693
172,پیشین,Pishin,16,26.0802335,61.7515585
173,محی آباد,Mohiabad,21,30.0837663,57.162155
174,جوپار,Jupar,21,30.0602871,57.1107791
175,اسدیه,Asadiyeh,10,32.914166,60.0211709
176,بهرمان,Bahreman,21,30.9034647,55.7289235
177,سه قلعه,Se Qaleh,10,33.6672142,58.3974252
178,اردکان,Ardakan,17,30.2623521,51.9836519
179,داریان,Darian,17,29.5600604,52.9223294
180,مبارکه,Mobarakeh,4,32.3424135,51.5046633
181,کرکوند,Karkevand,4,32.3460971,51.4473626
182,فرادنبه,Faradanbeh,9,32.0080417,51.2176939
183,فارسان,Farsan,9,32.2549162,50.5624938
184,خضرآباد,Khezrababd,31,31.8660363,53.9524198
185,نیر,Nir,31,31.4845702,54.1259966
186,احمدآباد,Ahmadabad,31,32.3577003,53.9922234
187,مهریز,Mehriz,31,31.5841945,54.4445661
188,هرات,Harat,31,30.0585897,54.3674023
189,تفت,Taft,31,31.752049,54.217422
190,مروست,Marvast,31,30.4774172,54.2126137
191,مهردشت,Mehrdasht,31,31.0244526,53.3488446
192,چرمهین,Chermahin,4,32.3333972,51.1898097
193,دیزیچه,Dizicheh,4,32.3829496,51.5128444
194,ورنامخواست,Varnamkhast,4,32.3589117,51.3787538
195,دهق,Dehagh,4,33.1049536,50.9629781
196,چمگردان,Chamgordan,4,32.393093,51.338919
197,علویجه,Alavijeh,4,33.0560985,51.0845672
198,باغ بهادران,Baq Bahadoran,4,32.3762181,51.1890059
199,عسگران,Asgaran,4,32.8646215,50.8517144
200,سده لنجان,Sedeh Lanjan,4,32.3783604,51.3148844
201,فلاورجان,Falavarjan,4,32.5576772,51.5079153
202,قهدریجان,Qahderijan,4,32.577126,51.4539164
203,محمدآباد,Mohammadabad,4,32.3250781,52.1110092
204,پیربکران,Pir Bakran,4,32.468331,51.5595521
205,گلدشت,Goldasht,4,32.6247941,51.4391574
206,حبیب آباد,Habibabad,4,32.8276538,51.7757315
207,کلیشاد و سودرجان,Kelishad and Sudarjan,4,32.5476802,51.5329463
208,دستگرد,Dastgerd,4,32.8015531,51.6640173
209,دهاقان,Dehaqan,4,31.9367339,51.6471146
210,ابریشم,Abrisham,4,32.5697615,51.5712769
211,گز برخوار,Gaz Borkhar,4,32.8062144,51.6168226
212,کوشک,Kushk,4,32.6391832,51.5004056
213,نصرآباد,Nasrabad,4,32.2792223,52.0600418
214,نیک آباد,Nikabad,4,32.3041598,52.2032026
215,هرند,Harand,4,32.5625906,52.4355327
216,سجزی,Sejzi,4,32.6900849,52.1254256
217,ورزنه,Varzaneh,4,32.4203632,52.6486815
218,گوگد,Guged,4,33.4755802,50.3554565
219,حسن آباد,Hasanabad,4,32.1402808,52.6278545
220,گلپایگان,Golpayegan,4,33.456488,50.2883303
221,کوهپایه,Koohpayeh,4,32.7138321,52.4405045
222,اژیه,Ezhieh,4,32.4400685,52.3789114
223,خوانسار,Khansar,4,33.22692,50.3146044
224,دستجرد,Dastjerd,19,34.5504237,50.2473376
225,فرمهین,Farmahin,28,34.5044405,49.6842027
226,داوودآباد,Davudabad,28,34.2922268,49.8553198
227,لواسان,Lavasan,8,35.8204845,51.6321444
228,قنوات,Qanavat,19,34.6136599,51.0246432
229,کهریزک,Kahrizak,8,35.517323,51.3618852
230,باقرشهر,Baqershahr,8,35.5338489,51.4053842
231,مهستان,Mehestan,5,35.9953399,50.7267844
232,سریش آباد,Serishabad,20,35.2478257,47.778892
233,محمدیار,Mohammadyar,2,36.9841837,45.5167584
234,قوشچی,Qushchi,2,37.9929508,45.0370956
235,تسوج,Tasuj,1,38.3168836,45.3590459
236,شندآباد,Shendabad,1,38.1414419,45.6298841
237,وایقان,Vayqan,1,38.1304823,45.7129464
238,بیله سوار,Bilasuvar,3,39.3779114,48.3499706
239,گرمی,Germi,3,39.029223,48.0800478
240,ایلخچی,Ilkhchi,1,37.9389278,45.9800159
241,ممقان,Mamqan,1,37.8443261,45.9729822
242,گوگان,Gugan,1,37.7818413,45.9038288
243,عجب‌ شیر,Ajab Shir,1,37.4770929,45.8936922
244,ملکان,Malekan,1,37.1432315,46.1056025
245,جنگل,Jangal,11,34.7033333,59.2227778
246,نیل شهر,Nilshahr,11,35.1224857,60.7736351
247,فرهادگرد,Farhad Gerd,11,35.7664697,59.7345327
248,نقاب,Neqab,11,36.7105093,57.4086684
249,مشهد ریزه,Mashhad Rizeh,11,34.7951124,60.5069801
250,صالح آباد,Salehabad,11,35.6871984,61.0943286
251,کاخک,Kakhk,11,34.1490179,58.6414603
252,درود,Darrud,11,36.1386891,59.1162125
253,زهان,Zohan,10,33.4226757,59.8126423
254,نیمبلوک,Nimbeluk,10,33.9122595,58.9319935
255,آرین شهر,Arianshahr,10,33.3319207,59.2333976
256,قاضی,Ghazi,12,37.4951123,56.7479936
257,شوقان,Shuqan,12,37.3418549,56.886776
258,سنخواست,Sankhast,12,37.0997416,56.8492214
259,پیش قلعه,Pish Qaleh,12,37.6511535,57.0015687
260,راز,Raz,12,37.9338042,57.1113879
261,درق,Daraq,12,36.9745545,56.2158601
262,سرخنکلاته,Sorkhankalateh,24,36.8924801,54.5690723
263,نوده خاندوز,Now Deh Khanduz,24,37.0763889,55.2625
264,نگین شهر,Neginshahr,24,37.1391667,55.1638889
265,فاضل آباد,Fazelabad,24,36.900353,54.7501997
266,اینچه برون,Incheboron,24,37.4553436,54.7183338
267,نوکنده,Nokandeh,24,36.7400119,53.9094891
268,انبارآلوم,Anbarolum,24,37.137102,54.6189997
269,دلند,Daland,24,37.0355462,55.0492231
270,مراوه تپه,Maraveh Tappeh,24,37.9042755,55.9549173
271,آق قلا,Aghghala,24,37.0134841,54.4576664
272,ایواوغلی,Ivughli,2,38.7139034,45.206595
273,کوهی خیل,Kuhi Kheyl,27,36.6879187,52.9118026
274,مرزن آباد,Marzan Abad,27,36.4539793,51.3005787
275,پل سفید,Pol-e Sefid,27,36.1169618,53.0574831
276,سلمان شهر,Salman Shahr,27,36.7050537,51.1960013
277,چمستان,Chamestan,27,36.4773762,52.1167325
278,گتاب,Gatab,27,36.431717,52.6578558
279,خلیل شهر,Khalil Shahr,27,36.7013487,53.6402049
280,زرگر شهر,Zargarshahr,27,36.517242,52.5751129
281,دابودشت,Daboodasht,27,36.4792745,52.4496747
282,بلده,Baladeh,27,36.202753,51.8089289
283,سورک,Surak,27,36.596122,53.2108207
284,گلوگاه,گلوگاه,27,36.3115426,52.6252808
285,مرزیکلا,Marzikola,27,36.3636458,52.7341391
286,رستم کلا,Rostamkola,27,36.6805079,53.4268953
287,عباس آباد,Abbasabad,27,36.7273388,51.1072379
288,شیرگاه,Shirgah,27,36.2995295,52.8865124
289,خوشرودپی,Khush Rudpey,27,36.371499,52.565815
290,هادی شهر,Hadishahr,27,36.6416925,52.6272276
291,نشتارود,Nashtarood,27,36.7486267,51.0358454
292,کوچصفهان,Kuchesfahan,25,37.2787049,49.7721208
293,داران,Daran,4,32.9865555,50.4138667
294,امیریه,Amiriyeh,15,36.0268156,54.1405503
295,کلاته خیج,Kalateh Khij,15,36.6737481,55.2968812
296,بیارجمند,Beyarjmand,15,36.0790243,55.8098841
297,آرادان,Aradan,15,35.2478246,52.4928417
298,مجن,Mojen,15,36.4796519,54.6483772
299,سرخه,Sorkheh,15,35.4638851,53.2135038
300,عشق آباد,Eshqabad,10,34.3650838,56.931383
301,شاهدیه,Shahediyeh,31,31.9422469,54.2828268
302,بستک,Bastak,29,27.1977195,54.362564
303,فین,Fin,29,27.6310402,55.8952572
304,بندر کنگ,Bandar Kong,29,26.5963007,54.9370873
305,هشت‌بندی,Hashtbandi,29,27.1580896,57.4497878
306,درگهان,Dargahan,29,26.9674546,56.0778103
307,زیارتعلی,Ziaratali,29,27.7414567,57.2264015
308,بندر چارک,Bandar Charak,29,26.7318351,54.2791108
309,سوزا,Suza,29,26.777574,56.0631263
310,بندر خمیر,Bandar Khamir,29,26.9519276,55.5854804
311,آب پخش,Ab Pakhsh,7,29.3604336,51.0713656
312,بردخون,Bordekhoon,7,28.0623996,51.4771795
313,آبدان,Abedan,7,28.0811819,51.7703454
314,شبانکاره,Shabankareh,7,29.4696724,50.9909974
315,کلمه,Kalameh,7,28.9436694,51.4581903
316,سعدآباد,Saadabad,7,29.3848355,51.1166292
317,نخل تقی,Nakhl-e Taghi,7,27.4980795,52.583854
318,ریز,Riz,7,28.0517466,52.0837191
319,دلوار,Delvar,7,28.7628729,51.0719232
320,وحدتیه,Vahdatiyeh,7,29.48306,51.2369657
321,تنگ ارم,Tang-e Eram,7,29.1544748,51.5293588
322,خلخال,Khalkhal,3,37.6192217,48.5278144
323,لنده,Landeh,23,30.9795975,50.4238799
324,دیشموک,Dishmuk,23,31.2969774,50.4022724
325,چرام,Charam,23,30.750813,50.7419101
326,مارگون,Margown,23,30.9921088,51.0829701
327,سوق,Suq,23,30.8608561,50.4565101
328,قلعه رئیسی,Qal'eh Raisi,23,31.1905312,50.4413014
329,گراب سفلی,Garab-e Sofla,23,30.9426038,50.8983137
330,کومله,Kumeleh,25,37.1523678,50.1740681
331,سنگر,Sangar,25,37.179787,49.6947763
332,لوندویل,Lavandevil,25,38.3082625,48.8675037
333,گوراب زرمیخ,Gorabzarmikh,25,37.3021335,49.2208733
334,احمدسر گوراب,Ahmadsar Gurab,25,37.1308716,49.3656599
335,جیرنده,Jirandeh,25,36.7021301,49.7957151
336,پره سر,Pareh sar,25,37.6026842,49.0656917
337,حویق,Haviq,25,38.1479478,48.8945515
338,خمام,Khomam,25,37.3904902,49.6607472
339,شلمان,Shalman,25,37.1559178,50.2161864
340,توتکابن,Tutkabon,25,36.8928479,49.5276938
341,خشک بیجار,Khoshkebijar,25,37.3742058,49.7581583
342,دیلمان,Deylaman,25,36.8884879,49.906745
343,شبخوسلات,شبخوسلات,25,37.0459534,50.2369514
344,چوبر,Chobar,25,37.0926728,49.4140997
345,کوراییم,Kuraiem,3,37.9552413,48.2355776
346,لاهرود,Lahrud,3,38.5081222,47.8316745
347,عنبران,Anbaran,3,38.4900003,48.4355097
348,آبی بیگلو,Abibiglou,3,38.28365,48.5527012
349,هشجین,Hashjin,3,37.369503,48.322197
350,هیر,Hir,3,38.0801837,48.5065169
351,نیر,Nir,3,38.034005,47.9991069
352,جعفر آباد,Jafarabad,3,39.4356852,48.0946149
353,نمین,Namin,3,38.4240161,48.4840477
354,رضی,Razey,3,38.6296398,48.0956519
355,کلور,Kolur,3,37.3889125,48.7221802
356,سجاس,Sojas,14,36.2402834,48.5530842
357,قیدار,Qeydar,14,36.1227353,48.591074
358,ماه نشان,Mah Neshan,14,36.7456508,47.6716751
359,چورزق,Chavarzagh,14,36.9982345,48.7776206
360,قیر,Qir,17,28.482802,53.0357558
361,قطب آباد,Qotbabad,17,28.6393017,53.6378046
362,زاهدشهر,Zahedshahr,17,28.7484346,53.8041063
363,نوبندگان,Now Bandegan,17,28.8545602,53.8259023
364,بینالود,Binalood,11,35.9959371,59.3398554
365,خاتون آباد,Khatunabad,21,30.0077147,55.4204993
366,سردرود,Sardrud,1,38.0278895,46.1474327
367,لیلان,Leylan,1,37.0111324,46.2059139
368,مهربان,Mehraban,1,38.0806733,47.1317722
369,ترکمانچای,Torkamanchay,1,37.5816929,47.3911101
370,زرنق,Zarnaq,1,38.0922769,47.082889
371,سیس,Sis,1,38.1997037,45.8124325
372,آبیش احمد,Abish Ahmad,1,39.0431974,47.3169755
373,خواجه,Khajeh,1,38.1529122,46.5827856
374,کندرود,Kond Rud,1,38.0098531,46.479017
375,قره آغاج,Qara-aghaj,1,37.1283853,46.9745628
376,کوزه کنان,Kuzekonan,1,38.1865623,45.5751442
377,زنوز,Zonuz,1,38.5880287,45.8319818
378,نظرکهریزی,Nazarkahrizi,1,37.34697,46.7629592
379,بخشایش,Bakhshayesh,1,38.131648,46.9471214
380,سیه رود,Siyahrud,1,38.8693808,46.0023332
381,یامچی,Yamchi,1,38.5223144,45.6404499
382,خاروانا,Kharvana,1,38.6851329,46.1697582
383,خداجو,Khodaju,1,37.3127515,46.5310312
384,هریس,Heris,1,38.2472611,47.1162759
385,تیکمه داش,Tikmedash,1,37.7257203,46.9375589
386,تَرک,Tark,1,37.6162908,47.7709614
387,کشکسرای,Koshksaray,1,38.458553,45.5673225
388,آق کند,Aq kand,1,37.2575571,48.0648621
389,دوزدوزان,Duzduzan,1,37.948976,47.119787
390,چهاربرج,Chaharborj,2,37.1250023,45.9772001
391,سیمینه,Simineh,2,36.7303445,46.1534194
392,سیلوانا,Silvaneh,2,37.4216528,44.8543213
393,آواجیق,Avajiq,2,39.3301839,44.1538901
394,لاجان,Gherdakshaneh,2,36.8084866,45.264528
395,شوط,Showt,2,39.2178874,44.7711898
396,کشاورز,Keshavarz,2,36.8355495,46.3573777
397,فیرورق,Firuraq,2,38.5821035,44.8316495
398,ربط,Rabat,2,36.2092112,45.5542469
399,ماکو,Maku,2,39.2909641,44.4521379
400,دامنه,Damaneh,4,33.0178599,50.4893488
401,روانسر,Ravansar,22,34.7161309,46.6508369
402,اسحاق آباد,Eshaq Abad,11,36.0306501,59.006878
403,نوقاب,Noqab,11,34.3524545,58.7288281
404,گلمکان,Golmakan,11,36.4818235,59.1595291
405,حاجی آباد,Hajiabad,17,28.3590721,54.4206696
406,جویم,Juyom,17,28.2598958,53.9806139
407,بنارویه,Banaruiyeh,17,28.0832919,54.0467988
408,چنار,Chenar,11,36.6922062,59.9768356
409,اختیارآباد,Ekhtiarabad,21,30.3276538,56.9247177
410,بشرویه,Boshruyeh,10,33.8662098,57.4253814
411,یزد,Yazd,31,31.9052223,54.3701235
412,مزرعه کتول,Mazraeh,24,36.9548473,54.858326
413,روشناوند,Rushnavand,11,34.4666667,58.9116667
414,گنبد کاووس,Gonbad-e Qabus,24,37.2492965,55.1659018
415,امام شهر,Emamshahr,17,28.4467257,53.1528552
416,نافچ,Nafch,9,32.4228214,50.7896658
417,سودجان,Sodejan,9,32.5215922,50.4018883
418,افوس,Afus,4,33.0240732,50.0929526
419,سراب,Sarab,1,37.9407851,47.5374867
420,بافق,Bafq,31,31.5997065,55.3966892
421,جلفا,Jolfa,1,38.9376054,45.6252101
422,قهستان,Qohestan,10,33.1495413,59.7165809
423,سمنان,Semnan,15,35.5834074,53.3882906
424,ایلام,Ilam,6,33.6379365,46.4202743
425,رفسنجان,Rafsanjan,21,30.402184,55.9941776
426,بومهن,Bumehen,8,35.7285207,51.864313
427,نوسود,Nowsud,22,35.1612676,46.2042463
428,جالق,Jaleq,16,27.6033419,62.7097131
429,احمدآباد صولت,Ahmadabad-e Sowlat,11,35.1163649,60.6897163
430,سمیع آباد,Samiabad-e Arbab Din Mohammad,11,35.1482299,60.9052271
431,لاریم,Larim,27,36.7232053,52.936226
432,ازگله,Ezgeleh,22,34.8322142,45.8424966
433,کلاته,Kalateh,15,36.3570835,54.1455832
434,رزوه,Rozveh,4,32.8349784,50.5673592
435,بابلسر,Babolsar,27,36.7008777,52.6481047
436,گلشن,Golshan,4,31.9354578,51.752294
437,بروجرد,Borujerd,26,33.8943281,48.7560936
438,خور,Khur,4,33.7761331,55.0828304
439,لیسار,Lisar,25,37.958973,48.9082044
440,ارسک,Eresk,10,33.7015379,57.3732972
441,انار,Anar,21,30.8723337,55.2716302
442,دبیران,Dabiran,17,28.4064149,54.1884143
443,دوزه,Duzeh,17,28.7017719,52.9536255
444,افزر,Efzar,17,28.3468462,52.9664812
445,خور,Khur,17,27.6459069,54.345362
446,لطیفی,Latifi,17,27.6900779,54.38714
447,شهر پیر,Shahr-e Pir,17,28.3116705,54.3351822
448,ازندریان,Azandarian,30,34.504361,48.6909354
449,برزول,Barzul,30,34.2128467,48.2600728
450,دمق,Damaq,30,35.4431296,48.8234849
451,گیان,Giyan,30,34.1771986,48.2445727
452,ملایر,Malayer,30,34.2922623,48.8215749
453,قروه درجزین,Qorveh-e Darjazin,30,35.3101504,49.1004503
454,شیرین سو,Shirin Su,30,35.4926221,48.4515219
455,فامنین,Famenin,30,35.1179137,48.9721158
456,قهاوند,Qahavand,30,34.8594697,49.0033362
457,گزیک,Gazik,10,33.000821,60.2266472
458,طبس مسینا,Tabas-e Masina,10,32.8063555,60.222247
459,جعفریه,Jafariyeh,19,34.7747682,50.5164348
460,بار,Bar,11,36.4897198,58.7161898
461,شهر خرو,Kharv,11,36.1442815,59.0158029
462,علی‌اکبر,Aliakbar,16,30.9382799,61.3249452
463,بنت,Bent,16,26.290834,59.5237216
464,فنوج,Fanuj,16,26.575768,59.6398773
465,گلمورتی,Golmorti,16,27.4809916,59.4483063
466,هیدوج,Hiduj,16,27.0005081,62.116917
467,محمدی,Mohammadi,16,27.3278336,62.3903874
468,نگور,Negur,16,25.3889117,61.1390842
469,نصرت‌آباد,Nosratabad,16,29.8589189,59.9802973
470,زهک,Zehak,16,30.8932189,61.6827311
471,امامزاده عبدالله,Emamzadeh Abdollah,27,36.4062759,52.3095848
472,گزنک,Gazanak,27,35.9038115,52.2246758
473,کلارآباد,Kelarabad,27,36.6964662,51.2511485
474,پول,Pool,27,36.3947555,51.5948604
475,میاندوآب,Miandoab,2,36.9695588,46.0993809
476,تیمورلو,Teymurlu,1,37.8054805,45.8995042
477,کیاشهر,Kiashahr,25,37.4188972,49.9488125
478,فردیس,Fardis,5,35.7316704,50.9891563
479,لولمان,Loleman,25,37.2551709,49.8150112
480,حسن آباد,laien no,11,37.1283649,59.499124
481,هجدک,Hojedk,21,30.7594357,57.0039838
482,بندر لنگه,Bandar-e Lengeh,29,26.5620668,54.883817
483,قلعه نو علیا,Qal‘eh Now-e Olya,11,35.0974828,60.1580054
484,باغشاد,Baghshad,4,32.3837155,51.2325317
485,ایمان شهر,Iman Shahr,4,32.4881597,51.4469528
486,باسمنج,Basmenj,1,37.9955619,46.4749113
487,جوزدان,Jowzdan,4,32.5566297,51.3714526
488,سعید آباد,Said Abad,4,33.5288003,50.3203988
489,لای بید,Lay Bid,4,33.4620923,50.6952181
490,گرگاب,Gorgab,4,32.8678119,51.5981358
491,کشمش تپه,Keshmesh Tappeh,2,39.337925,44.39504
492,اشترینان,Oshtorinan,26,34.0166865,48.6426479
493,فیروزآباد,Firuzabad,26,33.8982515,48.1034902
494,قطور,Qatur,2,38.4714718,44.4099457
495,گلشهر,Golshahr,4,33.5130447,50.4754975
496,گودین,Gowdin,22,34.5071703,48.079899
497,بوئین و میاندشت,Buin and Miandasht,4,33.0805194,50.1598427
498,سطر,Satar,22,34.8126546,47.4612562
499,سپاهان شهر,Sepahan Shahr,4,32.5507746,51.6741091
500,میمه,Meymeh,4,33.4467299,51.1733569
501,مشکان,Meshkan,11,36.5329335,58.1455051
502,میرآباد,Qal`eh-ye Mirabad,22,34.6871,46.2959
503,شروینه,Shervenineh,22,34.828,46.3578
504,نفت شهر,Naft Shahr,22,33.993356,45.497316
505,سرمست,Sarmast,22,34.0266,46.329
506,گهواره,Gahvareh,22,34.344125,46.417181
507,حمیل,Homeyl,22,33.9376399,46.7736717
508,اهلشی,Ahlashi,22,34.1105266,47.0894855
509,کوزران,Kuzaran,22,34.4965,46.599
510,باینگان,Bayangan,22,34.9813,46.2709
511,شیخ صالح,Sheykh Salleh,22,34.9707879,45.9260275
512,هرسین,Harsin,22,34.2691441,47.5834103
513,دینور (میان راهان),Mian Rahan,22,34.5843,47.442
514,املش,Amlash,25,37.1581386,50.2305102
515,سرپل ذهاب,Sarpol-e Zahab,22,34.4607687,45.863763
516,اولتان,Owltan,3,39.6058733,47.7690599
517,ماهیدشت,Mahidasht,22,34.2677638,46.8003223
518,دهسرخ,Dehsorkh,4,32.4102723,51.6674027
519,صادق آباد,Sadeqabad,24,37.3755556,55.6744444
520,القجر,Alqajar,24,37.2119444,55.345
521,فیروزآباد,Firouzabad,3,37.5876447,48.2293142
522,جوشقان قالی,Jowsheqan-e Qali,4,33.5908206,51.212541
523,سیاه بوم,سیاه بوم,4,32.3560329,51.4244541
524,قروق آقا,قروق آقا,4,32.358243,51.4167504
525,اشیان,اشیان,4,32.3547744,51.4122081
526,سورچه پائین,سورچه پائین,4,32.3502465,51.4277427
527,سورچه بالا,سورچه بالا,4,32.3362994,51.4164789
528,رامشه,Ramsheh,4,31.8223604,52.4970566
529,بندر کنگان,Bander Kangan,7,27.8370685,52.06371
530,ینقاق,Yanqaq,24,37.2968779,55.3688389
531,قلعه نو,Ghale Nou,4,33.7052326,51.9777047
532,حلب,Halab,14,36.2952608,48.0595228
533,قهجاورستان,Qahjavarestan,4,32.7040579,51.8330476
534,سین,Sin,4,32.8536719,51.6563384
535,نوده انقلاب,Nowdeh-e-Enghelab,11,36.4653632,57.6401523
536,مهرگان,Mehregan,18,36.2514443,50.1816739
537,ترکالکی,Torkalaki,13,32.2441851,48.8464607
538,دوزین,Dowzeyn,24,37.1252778,55.5777778
539,فرح آباد,Farah Abad,27,36.7906781,53.1110064
540,طبقده,Tabaqdeh,27,36.7628448,53.2031412
541,زیار,Ziar,4,32.5094459,51.9378864
542,حکم آباد,حکم آباد,11,36.6299442,57.6006154
543,رادکان,Radkan,11,36.8019867,59.0108024
544,ریواده,Rivadeh,11,36.7917484,57.1128414
545,شامکان,Shamkan,11,35.9985465,58.2012327
546,نسر,Nasar,11,35.5224154,59.4418389
547,گرماب,Garmab,11,36.2378563,58.4304173
548,شهرکهنه,Shahr-e Kohneh,11,37.1405865,58.3915645
549,جنت آباد,جنت آباد,11,35.5986509,61.1406189
550,ایور,Ivar,12,36.9696847,56.2592355
551,غلامان,غلامان,12,38.0580601,57.1421526
552,یکه سعود,Yekesowut,12,38.1732277,56.6905627
553,قوشخانه,Qush Khaane,12,37.74552,57.7216016
554,تاتار علیا,Tatar Olya,24,37.1106388,55.049172
555,هچیرود,Hachirood,27,36.6879365,51.3452585
556,پایین هولار,Pain Hular,27,36.4284939,53.1350757
557,اصغرآباد,Asgharabad,4,32.6516875,51.4838278
558,بیده,Bideh,4,30.9469408,51.6517419
559,شاپورآباد,Shahpurabad,4,32.8438053,51.744414
560,فتح آباد,Fathabad,4,31.6020835,51.5426261
561,کمشچه,Komeshcheh,4,32.9055468,51.809343
562,شاندرمن,شاندرمن,25,37.4052992,49.1192822
563,انگوت,Tazeh Kand-e Angut,3,39.045299,47.7448756
564,آشار,Ashar,16,26.6791794,61.6711329
565,ده رئیس,Deh Raeis,16,27.6740222,61.0303887
566,ساربوک,Sarbuk,16,26.1924584,60.5955394
567,سرجنگل,Sarjangal,16,28.8827191,60.4054856
568,سیب,Sib,16,27.240525,62.0744874
569,قاسم آباد,Ghasemabad,16,27.1781313,60.3271033
570,محمدان,Mohammadan,16,27.2023277,60.5616428
571,پارود,Paroud,16,26.3705451,61.2897094
572,پلان,Pollan,16,25.5967262,61.1018603
573,چانف,Chaanf,16,26.6434206,60.4982037
574,چگردک,Chegerdak,16,27.087957,59.1148461
575,کتیج,Kotij,16,26.7229867,59.1377198
576,آبگرم,Ab-e Garm,18,35.7572894,49.2849077
577,زرین شهر,Zarrinshahr,4,32.3887062,51.3737142
578,لالی,Lali,13,32.3306321,49.0944
579,گل گیر,Golgir,13,31.7647539,49.4983012
580,جانانلو,Janan Lu,1,39.1207215,46.8801138
581,اندوهجرد,Anduhjerd,21,30.2315368,57.751371
582,باغین,Baghein,21,30.187107,56.8176548
583,دشتکار,دشتکار,21,29.9067856,56.6622281
584,دوساری,Dow Sari,21,28.4292459,57.9423801
585,رحمت آباد,رحمت آباد,21,28.6430281,59.0613728
586,نودژ,Nowdezh,21,27.5267475,57.4574925
587,علی آباد (ارزوئیه),Aliabad,21,28.3590613,56.8670682
588,گنبکی,Gonbaki,21,28.7222475,58.8664914
589,جبالبارز,Jebalbarez,21,28.9071346,57.8852472
590,مردهک,Mardehek,21,28.3517264,58.1586637
591,خواجو شهر,Khaju Shahr,21,29.2730974,55.8314812
592,چاه دادخدا,چاه دادخدا,21,27.2848776,58.264468
593,چاه مرید,چاه مرید,21,27.9413066,57.555145
594,کشکوییه,Kashkuiyeh,21,28.9664277,56.5910897
595,بخ,Bakh,31,31.3074404,54.0857719
596,تیرور,"Tirur, Iran",29,27.3396747,56.9567463
597,رمکان,Ramkan,29,26.86722,56.0401774
598,زهوکی,Zehuki,29,27.0780396,57.0629659
599,سرگز,سرگز,29,27.9398953,56.662752
600,شمیل,Shamil,29,27.5013686,56.8639336
601,قلعه قاضی,Ghal-e Ghazi,29,27.4455968,56.5450429
602,بندر لافت,Bandar Laft,29,26.8996326,55.7607834
603,هنگویه,Henguiyeh,29,27.0686333,54.0086692
604,کرگان,Kargan,29,26.9540614,56.9525924
605,کهورستان,Kohurestan,29,27.2110594,55.5553067
606,گروگ,Garuk,29,26.5877269,57.0926598
607,ارد,Arad,17,27.7293279,53.6246366
608,اهل,Ahel,17,27.2112114,53.6588384
609,بیدشهر,Beedshehr,17,27.9826872,53.7396128
610,خانیمن,Khaniman,17,30.3500901,52.2416315
611,خوزی,Khuzi,17,27.4480198,52.9723728
612,خیرآباد توللی,Kheyrabad-e Tulalli,17,29.5636622,53.0752811
613,درودزن,Dorudzan,17,30.2085544,52.4462398
614,دهکویه,Dehkuyeh,17,27.8532941,54.4214269
615,دوبرجی,"Do Borji, Fars",17,28.3071988,55.1923987
616,رحمت آباد,Rahmatabad,17,29.6314736,53.0309948
617,رستاق,Rostaq,17,28.4462401,55.0760339
618,عمادشهر,Emadshahr,17,27.4474729,53.8602178
619,فتح‌ آباد,Fathabad,17,29.939941,52.7992229
620,پاسخن,Paskhan,17,28.7897188,54.3212945
621,کورده,Kourdeh,17,27.7819745,54.4232386
622,کوپن,Kupon,17,30.335431,51.290556
623,ده خیر حسینی,Deh Kheyr Hosseini,8,35.5324025,51.4663029
624,صالحیه,Salehiyeh,8,35.5052878,51.1915512
625,فرون آباد,Ferunabad,8,35.5150443,51.6195825
626,چهاردانگه,Chahar Dangeh,8,35.6067482,51.3100612
627,گلستان,Golestan,8,35.5214193,51.1767192
628,سرفاریاب,سرفاریاب,23,30.8037579,50.8539914
629,بوستان,Greater Boustan,23,30.3255948,51.2018217
630,سرآسیاب یوسفی,سرآسیاب یوسفی,23,31.0366157,50.2175289
631,سپیدار,Sepidar,23,30.5970597,51.3631048
632,قلعه ممبی,قلعه ممبی,23,31.1085153,50.1162135
633,پاتاوه,Pataveh,23,30.9556435,51.2676802
634,چیتاب,Chitab,23,30.7942097,51.327525
635,آباد,Abad,7,29.0246495,51.2523566
636,انارستان,Anarestan,7,28.0322242,52.0649913
637,بردستان,Bardestan,7,27.874025,51.9596196
638,بوشکان,Bushkan,7,28.8303842,51.6986659
639,بیدخون,Bidkhun,7,27.4809463,52.6688701
640,دوراهک,Dowrahak,7,27.9471043,51.9598451
641,شنبه,Shonbeh,7,28.3952701,51.7645229
642,حر ریاحی,Horr,13,32.1451617,48.3902049
643,حسینیه,Hoseyniyeh,13,32.6826625,48.247497
644,رغیوه,Raghiveh,13,31.5501651,49.2387195
645,میانرود,Mianrood,13,32.153851,48.4392787
646,آزادی,آزادی,13,32.4041735,48.2512579
647,شهر چمران,Saleh Shahr,13,32.2120495,48.6722366
648,فتح المبین,Fath ol Mobin,13,32.313844,48.1479421
649,صیدون,Seydun,13,31.367373,50.0844132
650,الوان,AbdolKhan-e Alvan,13,31.8750982,48.3388672
651,عرب حسن,Arab Hasan,13,31.8332743,48.8961813
652,عنبر,عنبر,13,32.2661631,49.0128947
653,ویس,Veys,13,31.4855352,48.8758094
654,گوریه,Guriyeh,13,31.8559767,48.7563581
655,شاهپورآباد,Shahpurabad,26,33.2489264,49.7026204
656,شول آباد,shulabad,26,33.1853836,49.1906861
657,سراب دوره,Sarāb-e Dowreh,26,33.5636959,48.0225482
658,چم پلک,چم پلک,26,33.7048631,47.7921648
659,گراب,Garab,26,33.4742486,47.2370614
660,شهر جدید چناره,شهر جدید چناره,20,35.5932771,46.3084659
661,ثمرین,Samarin,3,38.3565743,48.1356863
662,زیوه,زیوه,3,39.1232787,47.6506035
663,سیردان,Sirdan,18,36.6466238,49.1917414
664,چادگان,Chadegan,4,32.7679417,50.6290648
665,لاریجان,لاریجان,1,39.3038575,47.1970867
666,خشت,Khesht,17,29.5679441,51.3395311
667,کاج,Kāj,9,32.0583082,50.5827861
668,کمالشهر,Kamalshahr,5,35.8624842,50.880468
669,اسلامشهر آق گل,Eslamshahr-e Aqgol,30,34.556816,48.990338
670,مهاجران,Mohajeran,30,35.0764851,48.6161213
671,رویان,Ruyan,15,36.3510635,55.0023106
672,کهن آباد,Kohanabad,15,35.2218074,52.5216992
673,غرق آباد,Gharqabad,28,35.1092029,49.8312434
674,گتوند,Gotvand,13,32.2449183,48.8126036
675,بندر ریگ,Bandar Rig,7,29.4875457,50.6295575
676,زیاران,Ziaran,18,36.1206422,50.5280819
677,صفی آباد,SafiAbad,13,32.261972,48.4179471
678,شمس آباد,ShamsAbad,13,32.2978523,48.4295553
679,سماله,Somaleh,13,32.198813,48.8587387
680,جنت مكان,Jannat Makan,13,32.1836847,48.8146563
681,شرافت,Sherafat,13,32.0892117,48.7684968
682,سياه منصور,Siah Mansour,13,32.3311531,48.4961792
683,سی سخت,Sisakht,23,30.8630661,51.4557071
684,درچه,Dorcheh,4,32.6171666,51.5560012
685,شهر مجلسی,Majlesi,4,32.1980788,51.4992826
686,رویدر,Ruydar,29,27.4646306,55.4191063
687,آسمان آباد,Asemanabad,6,33.8619245,46.4518435
688,شهرک حمزه,Shahrak-e Hamzeh,13,32.1774559,48.5627031
689,خان ببین,Khanbebin,24,37.0125489,54.985773
690,هنزا,Hanza,21,29.3022258,57.1909341
691,رابر,Rabor,21,29.2907749,56.914165
692,مجومرد,Majomard,31,32.0237344,54.1988488
693,میانکوه,Miankooh City,13,30.7881413,49.7302405
694,اصلاندوز,Aslan Duz,3,39.4417175,47.4102145
695,تشان,Tashan,13,30.8259721,50.2026843
696,هما شهر,Hamashahr,17,30.1150018,52.081969
697,قره بلاغ,Qarahbolagh,17,28.9053715,54.1318277
698,سیمین شهر,Siminshahr,24,37.0112938,54.2317085
699,شربیان,Sharabiyan,1,37.881101,47.1008161
700,قم,Qom,19,34.6422939,50.8801184
701,زاینده رود,Zayandeh Rud,4,32.3880514,51.269889
702,اسلامیه,Eslamiyeh,10,34.044869,58.2196234
703,باغستان,Baghestan,10,34.104231,58.2951724
704,بالاشهر,Balashahr,29,27.2101162,57.3503066
705,جزیره تنب بزرگ,Greater Tunb,29,26.2661966,55.3062051
706,رودزرد ماشین,Rud Zard-e Mashin,13,31.3700914,49.7209535
707,شهرک سیمرغ,Simorgh Town,4,32.7792545,51.6315177
